SL-8 R/B                
1 15483U 85006B   26160.59333348  .00000218  00000+0  80866-4 0  9995
2 15483  74.0457  92.0377 0018602 340.5051 196.8801 14.37831669167233
SL-12 R/B(2)            
1 15772U 85042D   26160.71527708 -.00000017  00000+0  13932-4 0  9993
2 15772  71.1084 253.3022 0035880 339.1376 131.3222 14.22004624127478
SL-14 R/B               
1 15945U 85069B   26160.63010587  .00000422  00000+0  44843-4 0  9991
2 15945  82.5266 298.4735 0017367 245.9412 113.9987 14.86509675186491
SL-16 R/B               
1 16182U 85097B   26160.70333332 -.00000142  00000+0 -47345-4 0  9991
2 16182  71.0038 306.8338 0005548 126.5947 249.8585 14.16612169100263
SL-14 R/B               
1 16496U 86006B   26160.78386427  .00000533  00000+0  53878-4 0  9991
2 16496  82.5261 173.0803 0075488 328.4018  31.2676 14.86938090162891
COSMOS 1743             
1 16719U 86034A   26160.73735361  .00043882  00000+0  42371-3 0  9999
2 16719  82.5281 336.6506 0003584 306.5013  53.5916 15.66270964194626
SL-14 R/B               
1 16792U 86046B   26160.81158628  .00000354  00000+0  37977-4 0  9991
2 16792  82.4817 353.1457 0021618 284.5974  75.2845 14.85666058140085
SL-14 R/B               
1 16882U 86055B   26160.73694618  .00000360  00000+0  38549-4 0  9999
2 16882  82.5210  40.1376 0019701  31.7096  30.4304 14.85717997133032
AJISAI (EGS)            
1 16908U 86061A   26160.82450850 -.00000099  00000+0 -10493-4 0  9992
2 16908  50.0070 170.0358 0011252 161.8457 253.9782 12.44516769479477
SL-14 R/B               
1 17567U 87024B   26160.81154273  .00000334  00000+0  35196-4 0  9990
2 17567  82.5282   6.1839 0017223 319.5038  40.4895 14.86208310101810
COSMOS 1833             
1 17589U 87027A   26160.67536003  .00000321  00000+0  19704-3 0  9998
2 17589  70.9162 132.6580 0022612  67.5357 292.8156 14.13044325 23317
SL-16 R/B               
1 17590U 87027B   26160.80478771  .00000081  00000+0  64120-4 0  9998
2 17590  71.0033  82.3850 0006178 321.0957  38.9722 14.17172335 28390
SL-14 R/B               
1 17912U 87038B   26160.65175429  .00000304  00000+0  32433-4 0  9995
2 17912  82.5013 210.1700 0018258 216.9665 143.0294 14.85440817 92883
COSMOS 1844             
1 17973U 87041A   26160.54073896 -.00000162  00000+0 -58904-4 0  9994
2 17973  70.8980 200.4364 0033218 246.5919 113.1708 14.14569569 16573
SL-14 R/B               
1 18153U 87055B   26160.67996586  .00000395  00000+0  42527-4 0  9994
2 18153  82.4996 262.3056 0022046  71.0177 289.3426 14.85705816 83593
COSMOS 1867             
1 18187U 87060A   26160.72796608 -.00000068  00000+0  12146-4 0  9998
2 18187  65.0116  48.9489 0016360 282.0760  77.8491 14.31514993 33113
SL-14 R/B               
1 18749U 88001B   26160.34467725  .00000411  00000+0  44629-4 0  9993
2 18749  82.5126 109.1514 0016626 297.9151  62.0381 14.85603871 55633
COSMOS 1933             
1 18958U 88020A   26160.72392632  .00003106  00000+0  14846-3 0  9993
2 18958  82.5122 159.8260 0002758 216.9657 143.1387 15.18667679 64195
SL-3 R/B                
1 19046U 88032B   26160.80814638  .00003632  00000+0  16691-3 0  9993
2 19046  97.5251 143.8564 0023653 272.7887  87.0641 15.20785328 66102
SL-16 R/B               
1 19120U 88039B   26160.65187085  .00000033  00000+0  38433-4 0  9996
2 19120  71.0146 234.0915 0022664 204.2537 155.7524 14.19629387971434
COSMOS 1953             
1 19210U 88050A   26160.82422633  .00007120  00000+0  24458-3 0  9994
2 19210  82.5078  65.4578 0011561 149.0126 211.1799 15.29873046 51862
SL-8 R/B                
1 19257U 88053B   26160.71413569  .00000201  00000+0  73416-4 0  9996
2 19257  74.0479 302.8327 0019196 100.9436   3.7051 14.38964754989835
COSMOS 1975             
1 19573U 88093A   26160.69504363  .00006935  00000+0  24306-3 0  9994
2 19573  82.5203  25.2381 0010579 198.0028 162.0839 15.29230912 33467
SL-14 R/B               
1 19574U 88093B   26160.72016786  .00000440  00000+0  47643-4 0  9991
2 19574  82.5306 315.6556 0022195  93.4508 276.7319 14.85736146 14680
SL-16 R/B               
1 19650U 88102B   26160.72991015 -.00000140  00000+0 -46720-4 0  9998
2 19650  71.0004 317.8305 0016065 235.8263 124.1338 14.16166457939924
INTERCOSMOS 24          
1 20261U 89080A   26160.70954835  .00000843  00000+0  23882-3 0  9992
2 20261  82.6073  44.5099 1188384  79.2403 293.9950 12.59649809678380
SL-14 R/B               
1 20262U 89080C   26160.56265417  .00000393  00000+0  11721-3 0  9997
2 20262  82.5922 114.2057 1229177 334.8479  19.7253 12.50565919671632
DELTA 1 R/B             
1 20323U 89089B   26160.77017958  .00000296  00000+0  81743-4 0  9996
2 20323  97.0641 353.5153 0068585 190.3849 169.5937 14.50726353909082
ARIANE 40 R/B           
1 20443U 90005H   26160.67892371  .00000219  00000+0  83138-4 0  9993
2 20443  98.2962 218.5280 0008837 290.3352  69.6887 14.39923529906047
DELTA 2 R/B(1)          
1 20453U 90008B   26160.74245663  .00083977  00000+0  64867-3 0  9990
2 20453  35.6007 285.4221 0066666  43.4084 317.1880 15.67660417940536
