OBJECT_NAME,OBJECT_ID,EPOCH,MEAN_MOTION,ECCENTRICITY,INCLINATION,RA_OF_ASC_NODE,ARG_OF_PERICENTER,MEAN_ANOMALY,EPHEMERIS_TYPE,CLASSIFICATION_TYPE,NORAD_CAT_ID,ELEMENT_SET_NO,REV_AT_EPOCH,BSTAR,MEAN_MOTION_DOT,MEAN_MOTION_DDOT
SL-8 R/B,1985-006B,2026-06-09T14:14:24.012672,14.37831669,.00186025,74.0457,92.0377,340.5051,196.8801,0,U,15483,999,16723,.80865815E-4,.218E-5,0
SL-12 R/B(2),1985-042D,2026-06-09T17:09:59.939712,14.22004624,.00358805,71.1084,253.3022,339.1376,131.3222,0,U,15772,999,12747,.13932189E-4,-.17E-6,0
SL-14 R/B,1985-069B,2026-06-09T15:07:21.147168,14.86509675,.00173677,82.5266,298.4735,245.9412,113.9987,0,U,15945,999,18649,.44842546E-4,.422E-5,0
SL-16 R/B,1985-097B,2026-06-09T16:52:47.998848,14.16612169,.00055486,71.0038,306.8338,126.5947,249.8585,0,U,16182,999,10026,-.47344607E-4,-.142E-5,0
SL-14 R/B,1986-006B,2026-06-09T18:48:45.872928,14.86938090,.00754882,82.5261,173.0803,328.4018,31.2676,0,U,16496,999,16289,.53877558E-4,.533E-5,0
COSMOS 1743,1986-034A,2026-06-09T17:41:47.351904,15.66270964,.00035849,82.5281,336.6506,306.5013,53.5916,0,U,16719,999,19462,.4237142E-3,.43882E-3,0
SL-14 R/B,1986-046B,2026-06-09T19:28:41.054592,14.85666058,.00216189,82.4817,353.1457,284.5974,75.2845,0,U,16792,999,14008,.37977435E-4,.354E-5,0
SL-14 R/B,1986-055B,2026-06-09T17:41:12.149952,14.85717997,.00197015,82.5210,40.1376,31.7096,30.4304,0,U,16882,999,13303,.38549451E-4,.36E-5,0
AJISAI (EGS),1986-061A,2026-06-09T19:47:17.534400,12.44516769,.00112521,50.0070,170.0358,161.8457,253.9782,0,U,16908,999,47947,-.10492871E-4,-.99E-6,0
SL-14 R/B,1987-024B,2026-06-09T19:28:37.291872,14.86208310,.00172234,82.5282,6.1839,319.5038,40.4895,0,U,17567,999,10181,.35196335E-4,.334E-5,0
COSMOS 1833,1987-027A,2026-06-09T16:12:31.106592,14.13044325,.00226123,70.9162,132.6580,67.5357,292.8156,0,U,17589,999,2331,.19704317E-3,.321E-5,0
SL-16 R/B,1987-027B,2026-06-09T19:18:53.658144,14.17172335,.00061781,71.0033,82.3850,321.0957,38.9722,0,U,17590,999,2839,.64119543E-4,.81E-6,0
SL-14 R/B,1987-038B,2026-06-09T15:38:31.570656,14.85440817,.00182586,82.5013,210.1700,216.9665,143.0294,0,U,17912,999,9288,.32433344E-4,.304E-5,0
COSMOS 1844,1987-041A,2026-06-09T12:58:39.846144,14.14569569,.00332183,70.8980,200.4364,246.5919,113.1708,0,U,17973,999,1657,-.5890425E-4,-.162E-5,0
SL-14 R/B,1987-055B,2026-06-09T16:19:09.050304,14.85705816,.00220463,82.4996,262.3056,71.0177,289.3426,0,U,18153,999,8359,.42526963E-4,.395E-5,0
COSMOS 1867,1987-060A,2026-06-09T17:28:16.269312,14.31514993,.00163601,65.0116,48.9489,282.0760,77.8491,0,U,18187,999,3311,.12146286E-4,-.68E-6,0
SL-14 R/B,1988-001B,2026-06-09T08:16:20.114400,14.85603871,.00166264,82.5126,109.1514,297.9151,62.0381,0,U,18749,999,5563,.446291E-4,.411E-5,0
COSMOS 1933,1988-020A,2026-06-09T17:22:27.234048,15.18667679,.00027583,82.5122,159.8260,216.9657,143.1387,0,U,18958,999,6419,.14845623E-3,.3106E-4,0
SL-3 R/B,1988-032B,2026-06-09T19:23:43.847232,15.20785328,.00236536,97.5251,143.8564,272.7887,87.0641,0,U,19046,999,6610,.16691364E-3,.3632E-4,0
SL-16 R/B,1988-039B,2026-06-09T15:38:41.641440,14.19629387,.00226648,71.0146,234.0915,204.2537,155.7524,0,U,19120,999,97143,.3843259E-4,.33E-6,0
COSMOS 1953,1988-050A,2026-06-09T19:46:53.154912,15.29873046,.00115617,82.5078,65.4578,149.0126,211.1799,0,U,19210,999,5186,.24458049E-3,.712E-4,0
SL-8 R/B,1988-053B,2026-06-09T17:08:21.323616,14.38964754,.00191962,74.0479,302.8327,100.9436,3.7051,0,U,19257,999,98983,.73416333E-4,.201E-5,0
COSMOS 1975,1988-093A,2026-06-09T16:40:51.769632,15.29230912,.00105791,82.5203,25.2381,198.0028,162.0839,0,U,19573,999,3346,.24306095E-3,.6935E-4,0
SL-14 R/B,1988-093B,2026-06-09T17:17:02.503104,14.85736146,.00221959,82.5306,315.6556,93.4508,276.7319,0,U,19574,999,1468,.47643436E-4,.44E-5,0
SL-16 R/B,1988-102B,2026-06-09T17:31:04.236960,14.16166457,.00160658,71.0004,317.8305,235.8263,124.1338,0,U,19650,999,93992,-.46719807E-4,-.14E-5,0
INTERCOSMOS 24,1989-080A,2026-06-09T17:01:44.977440,12.59649809,.11883848,82.6073,44.5099,79.2403,293.9950,0,U,20261,999,67838,.23881983E-3,.843E-5,0
SL-14 R/B,1989-080C,2026-06-09T13:30:13.320288,12.50565919,.12291773,82.5922,114.2057,334.8479,19.7253,0,U,20262,999,67163,.11720687E-3,.393E-5,0
DELTA 1 R/B,1989-089B,2026-06-09T18:29:03.515712,14.50726353,.00685859,97.0641,353.5153,190.3849,169.5937,0,U,20323,999,90908,.8174343E-4,.296E-5,0
ARIANE 40 R/B,1990-005H,2026-06-09T16:17:39.008544,14.39923529,.0008837,98.2962,218.5280,290.3352,69.6887,0,U,20443,999,90604,.83138094E-4,.219E-5,0
DELTA 2 R/B(1),1990-008B,2026-06-09T17:49:08.252832,15.67660417,.00666663,35.6007,285.4221,43.4084,317.1880,0,U,20453,999,94053,.64867009E-3,.83977E-3,0
